{"fetched_at":"2026-07-13T07:47:54.571Z","source":"https://celestrak.org/NORAD/elements/gp.php?GROUP=oneweb&FORMAT=JSON","constellation":"oneweb","records":[{"OBJECT_NAME":"ONEWEB-0602","OBJECT_ID":"2022-166AA","EPOCH":"2026-07-12T15:50:44.964960","CLASSIFICATION_TYPE":"U","MEAN_MOTION":13.21824113,"ECCENTRICITY":0.000189,"INCLINATION":87.9232,"RA_OF_ASC_NODE":238.931,"ARG_OF_PERICENTER":102.8528,"MEAN_ANOMALY":257.2817,"EPHEMERIS_TYPE":0,"NORAD_CAT_ID":54666,"ELEMENT_SET_NO":999,"REV_AT_EPOCH":17491,"BSTAR":0.000057839,"MEAN_MOTION_DOT":3.7e-7,"MEAN_MOTION_DDOT":0},{"OBJECT_NAME":"ONEWEB-0603","OBJECT_ID":"2022-166AB","EPOCH":"2026-07-12T15:59:13.372800","CLASSIFICATION_TYPE":"U","MEAN_MOTION":13.21823699,"ECCENTRICITY":0.0001958,"INCLINATION":87.9254,"RA_OF_ASC_NODE":238.8878,"ARG_OF_PERICENTER":100.9549,"MEAN_ANOMALY":259.1805,"EPHEMERIS_TYPE":0,"NORAD_CAT_ID":54667,"ELEMENT_SET_NO":999,"REV_AT_EPOCH":17484,"BSTAR":0.0000081834,"MEAN_MOTION_DOT":1.6e-7,"MEAN_MOTION_DDOT":0},{"OBJECT_NAME":"ONEWEB-0604","OBJECT_ID":"2022-166AC","EPOCH":"2026-07-12T15:42:16.023168","CLASSIFICATION_TYPE":"U","MEAN_MOTION":13.21824521,"ECCENTRICITY":0.0002089,"INCLINATION":87.9244,"RA_OF_ASC_NODE":238.9074,"ARG_OF_PERICENTER":98.6517,"MEAN_ANOMALY":261.4854,"EPHEMERIS_TYPE":0,"NORAD_CAT_ID":54668,"ELEMENT_SET_NO":999,"REV_AT_EPOCH":17480,"BSTAR":0.000040601,"MEAN_MOTION_DOT":3e-7,"MEAN_MOTION_DDOT":0},{"OBJECT_NAME":"ONEWEB-0605","OBJECT_ID":"2022-166AD","EPOCH":"2026-07-12T15:32:34.800000","CLASSIFICATION_TYPE":"U","MEAN_MOTION":13.21823944,"ECCENTRICITY":0.0001899,"INCLINATION":87.9238,"RA_OF_ASC_NODE":238.9196,"ARG_OF_PERICENTER":81.6966,"MEAN_ANOMALY":278.4383,"EPHEMERIS_TYPE":0,"NORAD_CAT_ID":54669,"ELEMENT_SET_NO":999,"REV_AT_EPOCH":17487,"BSTAR":-0.00027363,"MEAN_MOTION_DOT":-0.000001,"MEAN_MOTION_DDOT":0},{"OBJECT_NAME":"ONEWEB-0606","OBJECT_ID":"2022-166AE","EPOCH":"2026-07-12T16:04:04.778400","CLASSIFICATION_TYPE":"U","MEAN_MOTION":13.21825144,"ECCENTRICITY":0.0002166,"INCLINATION":87.9234,"RA_OF_ASC_NODE":238.9281,"ARG_OF_PERICENTER":100.9626,"MEAN_ANOMALY":259.1751,"EPHEMERIS_TYPE":0,"NORAD_CAT_ID":54670,"ELEMENT_SET_NO":999,"REV_AT_EPOCH":17493,"BSTAR":0.00015701,"MEAN_MOTION_DOT":7.8e-7,"MEAN_MOTION_DDOT":0},{"OBJECT_NAME":"ONEWEB-0607","OBJECT_ID":"2022-166AF","EPOCH":"2026-07-12T15:15:39.453120","CLASSIFICATION_TYPE":"U","MEAN_MOTION":13.21825906,"ECCENTRICITY":0.0001936,"INCLINATION":87.9237,"RA_OF_ASC_NODE":238.9083,"ARG_OF_PERICENTER":95.6227,"MEAN_ANOMALY":264.5128,"EPHEMERIS_TYPE":0,"NORAD_CAT_ID":54671,"ELEMENT_SET_NO":999,"REV_AT_EPOCH":17490,"BSTAR":0.000090573,"MEAN_MOTION_DOT":5e-7,"MEAN_MOTION_DDOT":0},{"OBJECT_NAME":"ONEWEB-0608","OBJECT_ID":"2022-166AG","EPOCH":"2026-07-12T15:25:18.416064","CLASSIFICATION_TYPE":"U","MEAN_MOTION":13.2182313,"ECCENTRICITY":0.0001861,"INCLINATION":87.9242,"RA_OF_ASC_NODE":238.9044,"ARG_OF_PERICENTER":81.5106,"MEAN_ANOMALY":278.6239,"EPHEMERIS_TYPE":0,"NORAD_CAT_ID":54672,"ELEMENT_SET_NO":999,"REV_AT_EPOCH":17491,"BSTAR":0.00034601,"MEAN_MOTION_DOT":0.00000156,"MEAN_MOTION_DDOT":0},{"OBJECT_NAME":"ONEWEB-0610","OBJECT_ID":"2022-166AH","EPOCH":"2026-07-12T13:07:16.563072","CLASSIFICATION_TYPE":"U","MEAN_MOTION":13.21825753,"ECCENTRICITY":0.0001463,"INCLINATION":87.9224,"RA_OF_ASC_NODE":238.9358,"ARG_OF_PERICENTER":92.9089,"MEAN_ANOMALY":267.2213,"EPHEMERIS_TYPE":0,"NORAD_CAT_ID":54673,"ELEMENT_SET_NO":999,"REV_AT_EPOCH":17480,"BSTAR":0.00012255,"MEAN_MOTION_DOT":6.4e-7,"MEAN_MOTION_DDOT":0},{"OBJECT_NAME":"ONEWEB-0611","OBJECT_ID":"2022-166AJ","EPOCH":"2026-07-12T12:57:33.153120","CLASSIFICATION_TYPE":"U","MEAN_MOTION":13.21826073,"ECCENTRICITY":0.0002204,"INCLINATION":87.9234,"RA_OF_ASC_NODE":238.9305,"ARG_OF_PERICENTER":97.9157,"MEAN_ANOMALY":262.2227,"EPHEMERIS_TYPE":0,"NORAD_CAT_ID":54674,"ELEMENT_SET_NO":999,"REV_AT_EPOCH":17479,"BSTAR":-0.00005583,"MEAN_MOTION_DOT":-1e-7,"MEAN_MOTION_DDOT":0},{"OBJECT_NAME":"ONEWEB-0612","OBJECT_ID":"2022-166AK","EPOCH":"2026-07-12T15:05:57.544800","CLASSIFICATION_TYPE":"U","MEAN_MOTION":13.21826876,"ECCENTRICITY":0.0001883,"INCLINATION":87.9244,"RA_OF_ASC_NODE":238.9123,"ARG_OF_PERICENTER":94.1769,"MEAN_ANOMALY":265.958,"EPHEMERIS_TYPE":0,"NORAD_CAT_ID":54675,"ELEMENT_SET_NO":999,"REV_AT_EPOCH":17479,"BSTAR":-0.000023882,"MEAN_MOTION_DOT":3e-8,"MEAN_MOTION_DDOT":0},{"OBJECT_NAME":"ONEWEB-0615","OBJECT_ID":"2022-166AL","EPOCH":"2026-07-12T12:47:51.786528","CLASSIFICATION_TYPE":"U","MEAN_MOTION":13.21825523,"ECCENTRICITY":0.00021668,"INCLINATION":87.9235,"RA_OF_ASC_NODE":238.9437,"ARG_OF_PERICENTER":101.5343,"MEAN_ANOMALY":258.6034,"EPHEMERIS_TYPE":0,"NORAD_CAT_ID":54676,"ELEMENT_SET_NO":999,"REV_AT_EPOCH":17479,"BSTAR":-0.0004697637,"MEAN_MOTION_DOT":-0.00000181,"MEAN_MOTION_DDOT":0},{"OBJECT_NAME":"ONEWEB-0655","OBJECT_ID":"2022-166AM","EPOCH":"2026-07-12T15:51:57.655008","CLASSIFICATION_TYPE":"U","MEAN_MOTION":13.21823243,"ECCENTRICITY":0.0001903,"INCLINATION":87.9236,"RA_OF_ASC_NODE":238.9192,"ARG_OF_PERICENTER":102.2047,"MEAN_ANOMALY":257.93,"EPHEMERIS_TYPE":0,"NORAD_CAT_ID":54677,"ELEMENT_SET_NO":999,"REV_AT_EPOCH":17480,"BSTAR":-0.000094104,"MEAN_MOTION_DOT":-2.6e-7,"MEAN_MOTION_DDOT":0},{"OBJECT_NAME":"ONEWEB-0659","OBJECT_ID":"2022-166AN","EPOCH":"2026-07-12T16:16:11.567424","CLASSIFICATION_TYPE":"U","MEAN_MOTION":13.21823363,"ECCENTRICITY":0.0002222,"INCLINATION":87.9221,"RA_OF_ASC_NODE":238.9178,"ARG_OF_PERICENTER":90.6829,"MEAN_ANOMALY":269.456,"EPHEMERIS_TYPE":0,"NORAD_CAT_ID":54678,"ELEMENT_SET_NO":999,"REV_AT_EPOCH":17489,"BSTAR":0.0002388,"MEAN_MOTION_DOT":0.00000112,"MEAN_MOTION_DDOT":0},{"OBJECT_NAME":"ONEWEB-0685","OBJECT_ID":"2022-166AP","EPOCH":"2026-07-12T12:37:42.906720","CLASSIFICATION_TYPE":"U","MEAN_MOTION":13.21848912,"ECCENTRICITY":0.00016875,"INCLINATION":87.9231,"RA_OF_ASC_NODE":238.9363,"ARG_OF_PERICENTER":90.3904,"MEAN_ANOMALY":269.7423,"EPHEMERIS_TYPE":0,"NORAD_CAT_ID":54679,"ELEMENT_SET_NO":999,"REV_AT_EPOCH":17476,"BSTAR":0.0002472354,"MEAN_MOTION_DOT":0.00000115,"MEAN_MOTION_DDOT":0},{"OBJECT_NAME":"ONEWEB-0712","OBJECT_ID":"2022-166AQ","EPOCH":"2026-07-12T12:27:20.861280","CLASSIFICATION_TYPE":"U","MEAN_MOTION":13.16595339,"ECCENTRICITY":0.00017717,"INCLINATION":87.9083,"RA_OF_ASC_NODE":223.7429,"ARG_OF_PERICENTER":106.3918,"MEAN_ANOMALY":253.7408,"EPHEMERIS_TYPE":0,"NORAD_CAT_ID":54680,"ELEMENT_SET_NO":999,"REV_AT_EPOCH":17539,"BSTAR":0.00010557766,"MEAN_MOTION_DOT":5.3e-7,"MEAN_MOTION_DDOT":0},{"OBJECT_NAME":"ONEWEB-0714","OBJECT_ID":"2022-166AR","EPOCH":"2026-07-12T12:45:28.537920","CLASSIFICATION_TYPE":"U","MEAN_MOTION":13.21825546,"ECCENTRICITY":0.00019808,"INCLINATION":87.9235,"RA_OF_ASC_NODE":238.9339,"ARG_OF_PERICENTER":104.7284,"MEAN_ANOMALY":255.407,"EPHEMERIS_TYPE":0,"NORAD_CAT_ID":54681,"ELEMENT_SET_NO":999,"REV_AT_EPOCH":17488,"BSTAR":0.00012426615,"MEAN_MOTION_DOT":6.4e-7,"MEAN_MOTION_DDOT":0},{"OBJECT_NAME":"ONEWEB-0532","OBJECT_ID":"2023-004A","EPOCH":"2026-07-12T11:18:24.956352","CLASSIFICATION_TYPE":"U","MEAN_MOTION":13.17648781,"ECCENTRICITY":0.00020023,"INCLINATION":87.9144,"RA_OF_ASC_NODE":0.8342,"ARG_OF_PERICENTER":82.3807,"MEAN_ANOMALY":277.7552,"EPHEMERIS_TYPE":0,"NORAD_CAT_ID":55140,"ELEMENT_SET_NO":999,"REV_AT_EPOCH":17091,"BSTAR":0.000009963369,"MEAN_MOTION_DOT":1.7e-7,"MEAN_MOTION_DDOT":0},{"OBJECT_NAME":"ONEWEB-0533","OBJECT_ID":"2023-004B","EPOCH":"2026-07-12T20:15:54.385344","CLASSIFICATION_TYPE":"U","MEAN_MOTION":13.12443223,"ECCENTRICITY":0.0001632,"INCLINATION":87.8958,"RA_OF_ASC_NODE":345.5682,"ARG_OF_PERICENTER":93.7254,"MEAN_ANOMALY":266.4061,"EPHEMERIS_TYPE":0,"NORAD_CAT_ID":55141,"ELEMENT_SET_NO":999,"REV_AT_EPOCH":17142,"BSTAR":-0.00084288,"MEAN_MOTION_DOT":-0.00000291,"MEAN_MOTION_DDOT":0},{"OBJECT_NAME":"ONEWEB-0541","OBJECT_ID":"2023-004C","EPOCH":"2026-07-12T12:18:28.842912","CLASSIFICATION_TYPE":"U","MEAN_MOTION":13.11414874,"ECCENTRICITY":0.00020514,"INCLINATION":87.8887,"RA_OF_ASC_NODE":16.0161,"ARG_OF_PERICENTER":91.0141,"MEAN_ANOMALY":269.1222,"EPHEMERIS_TYPE":0,"NORAD_CAT_ID":55142,"ELEMENT_SET_NO":999,"REV_AT_EPOCH":16926,"BSTAR":0.00058985805,"MEAN_MOTION_DOT":0.00000222,"MEAN_MOTION_DDOT":0},{"OBJECT_NAME":"ONEWEB-0543","OBJECT_ID":"2023-004D","EPOCH":"2026-07-12T10:20:16.328256","CLASSIFICATION_TYPE":"U","MEAN_MOTION":13.18686416,"ECCENTRICITY":0.00018397,"INCLINATION":87.9183,"RA_OF_ASC_NODE":330.4478,"ARG_OF_PERICENTER":104.6269,"MEAN_ANOMALY":255.5067,"EPHEMERIS_TYPE":0,"NORAD_CAT_ID":55143,"ELEMENT_SET_NO":999,"REV_AT_EPOCH":17302,"BSTAR":-0.000010402295,"MEAN_MOTION_DOT":9e-8,"MEAN_MOTION_DDOT":0},{"OBJECT_NAME":"ONEWEB-0544","OBJECT_ID":"2023-004E","EPOCH":"2026-07-12T08:21:17.668224","CLASSIFICATION_TYPE":"U","MEAN_MOTION":13.18687239,"ECCENTRICITY":0.00020434,"INCLINATION":87.9185,"RA_OF_ASC_NODE":330.4638,"ARG_OF_PERICENTER":102.7965,"MEAN_ANOMALY":257.3395,"EPHEMERIS_TYPE":0,"NORAD_CAT_ID":55144,"ELEMENT_SET_NO":999,"REV_AT_EPOCH":17301,"BSTAR":0.000084887309,"MEAN_MOTION_DOT":4.6e-7,"MEAN_MOTION_DDOT":0},{"OBJECT_NAME":"ONEWEB-0560","OBJECT_ID":"2023-004F","EPOCH":"2026-07-12T19:07:09.336576","CLASSIFICATION_TYPE":"U","MEAN_MOTION":13.18684463,"ECCENTRICITY":0.0002068,"INCLINATION":87.9184,"RA_OF_ASC_NODE":330.3643,"ARG_OF_PERICENTER":104.5705,"MEAN_ANOMALY":255.5656,"EPHEMERIS_TYPE":0,"NORAD_CAT_ID":55145,"ELEMENT_SET_NO":999,"REV_AT_EPOCH":17308,"BSTAR":0.000048901,"MEAN_MOTION_DOT":3.2e-7,"MEAN_MOTION_DDOT":0},{"OBJECT_NAME":"ONEWEB-0565","OBJECT_ID":"2023-004G","EPOCH":"2026-07-12T18:57:27.326304","CLASSIFICATION_TYPE":"U","MEAN_MOTION":13.18687076,"ECCENTRICITY":0.0002225,"INCLINATION":87.9166,"RA_OF_ASC_NODE":330.3908,"ARG_OF_PERICENTER":95.6269,"MEAN_ANOMALY":264.5117,"EPHEMERIS_TYPE":0,"NORAD_CAT_ID":55146,"ELEMENT_SET_NO":999,"REV_AT_EPOCH":17307,"BSTAR":0.000060209,"MEAN_MOTION_DOT":3.7e-7,"MEAN_MOTION_DDOT":0}]}
